start=new Date('2023-06-01T00:00:00.000Z').valueOf();
sats=[{"ELEMENT_SET_NO":"999","SEMIMAJOR_AXIS":"6925.358","CENTER_NAME":"EARTH","REV_AT_EPOCH":"11118","RA_OF_ASC_NODE":"338.7045","RCS_SIZE":"LARGE","EPHEMERIS_TYPE":"0","TLE_LINE2":"2 48667  53.0555 338.7045 0001291 114.4067 245.7056 15.06396901111183","ECCENTRICITY":"0.00012910","OBJECT_ID":"2021-044AF","APOAPSIS":"548.117","MEAN_MOTION_DOT":"0.00000392","MEAN_MOTION":"15.06396901","EPOCH":"2023-05-31T18:54:52.868160","ARG_OF_PERICENTER":"114.4067","DECAY_DATE":null,"LAUNCH_DATE":"2021-05-26","TLE_LINE1":"1 48667U 21044AF  23151.78811190  .00000392  00000-0  45180-4 0  9995","OBJECT_TYPE":"PAYLOAD","SITE":"AFETR","PERIAPSIS":"546.329","CLASSIFICATION_TYPE":"U","NORAD_CAT_ID":"48667","OBJECT_NAME":"STARLINK-2735","MEAN_ELEMENT_THEORY":"SGP4","MEAN_ANOMALY":"245.7056","COUNTRY_CODE":"US","GP_ID":"232926581","INCLINATION":"53.0555","PERIOD":"95.592","BSTAR":"0.00004518000000","TIME_SYSTEM":"UTC","MEAN_MOTION_DDOT":"0.0000000000000","REF_FRAME":"TEME","FILE":"3922037"},{"REV_AT_EPOCH":"11120","ELEMENT_SET_NO":"999","CENTER_NAME":"EARTH","SEMIMAJOR_AXIS":"6925.326","TLE_LINE2":"2 48668  53.0535 338.1343 0000867  83.9525 276.1563 15.06407262111201","EPHEMERIS_TYPE":"0","ECCENTRICITY":"0.00008670","RA_OF_ASC_NODE":"338.1343","RCS_SIZE":"LARGE","DECAY_DATE":null,"LAUNCH_DATE":"2021-05-26","TLE_LINE1":"1 48668U 21044AG  23151.91711829  .00005389  00000-0  38028-3 0  9992","SITE":"AFETR","OBJECT_TYPE":"PAYLOAD","APOAPSIS":"547.792","OBJECT_ID":"2021-044AG","MEAN_MOTION_DOT":"0.00005389","MEAN_MOTION":"15.06407262","EPOCH":"2023-05-31T22:00:39.020256","ARG_OF_PERICENTER":"83.9525","MEAN_ANOMALY":"276.1563","MEAN_ELEMENT_THEORY":"SGP4","INCLINATION":"53.0535","PERIOD":"95.592","BSTAR":"0.00038028000000","GP_ID":"232925329","COUNTRY_CODE":"US","REF_FRAME":"TEME","MEAN_MOTION_DDOT":"0.0000000000000","TIME_SYSTEM":"UTC","FILE":"3922037","PERIAPSIS":"546.591","NORAD_CAT_ID":"48668","CLASSIFICATION_TYPE":"U","OBJECT_NAME":"STARLINK-2738"},{"REV_AT_EPOCH":"11117","ELEMENT_SET_NO":"999","SEMIMAJOR_AXIS":"6925.335","CENTER_NAME":"EARTH","EPHEMERIS_TYPE":"0","TLE_LINE2":"2 48669  53.0536 338.7459 0000893  92.7797 267.3294 15.06404261111170","ECCENTRICITY":"0.00008930","RCS_SIZE":"LARGE","RA_OF_ASC_NODE":"338.7459","DECAY_DATE":null,"LAUNCH_DATE":"2021-05-26","TLE_LINE1":"1 48669U 21044AH  23151.78074047  .00007392  00000-0  51457-3 0  9999","OBJECT_TYPE":"PAYLOAD","SITE":"AFETR","OBJECT_ID":"2021-044AH","APOAPSIS":"547.819","MEAN_MOTION_DOT":"0.00007392","MEAN_MOTION":"15.06404261","EPOCH":"2023-05-31T18:44:15.976608","ARG_OF_PERICENTER":"92.7797","MEAN_ELEMENT_THEORY":"SGP4","MEAN_ANOMALY":"267.3294","GP_ID":"232925579","COUNTRY_CODE":"US","BSTAR":"0.00051457000000","PERIOD":"95.592","INCLINATION":"53.0536","TIME_SYSTEM":"UTC","MEAN_MOTION_DDOT":"0.0000000000000","REF_FRAME":"TEME","FILE":"3922037","PERIAPSIS":"546.582","CLASSIFICATION_TYPE":"U","NORAD_CAT_ID":"48669","OBJECT_NAME":"STARLINK-2707"},{"ELEMENT_SET_NO":"999","SEMIMAJOR_AXIS":"6925.356","CENTER_NAME":"EARTH","REV_AT_EPOCH":"11118","RA_OF_ASC_NODE":"338.4640","RCS_SIZE":"LARGE","ECCENTRICITY":"0.00012140","EPHEMERIS_TYPE":"0","TLE_LINE2":"2 48670  53.0535 338.4640 0001214  81.0254 279.0873 15.06397642111185","MEAN_MOTION_DOT":"0.00003036","MEAN_MOTION":"15.06397642","OBJECT_ID":"2021-044AJ","APOAPSIS":"548.062","ARG_OF_PERICENTER":"81.0254","EPOCH":"2023-05-31T20:14:30.478848","LAUNCH_DATE":"2021-05-26","DECAY_DATE":null,"OBJECT_TYPE":"PAYLOAD","SITE":"AFETR","TLE_LINE1":"1 48670U 21044AJ  23151.84340832  .00003036  00000-0  22263-3 0  9990","CLASSIFICATION_TYPE":"U","NORAD_CAT_ID":"48670","PERIAPSIS":"546.380","OBJECT_NAME":"STARLINK-2763","COUNTRY_CODE":"US","GP_ID":"232926830","PERIOD":"95.592","INCLINATION":"53.0535","BSTAR":"0.00022263000000","MEAN_ANOMALY":"279.0873","MEAN_ELEMENT_THEORY":"SGP4","FILE":"3922037","TIME_SYSTEM":"UTC","REF_FRAME":"TEME","MEAN_MOTION_DDOT":"0.0000000000000"},{"SITE":"AFETR","OBJECT_TYPE":"PAYLOAD","TLE_LINE1":"1 48671U 21044AK  23151.83972158  .00005636  00000-0  39698-3 0  9990","LAUNCH_DATE":"2021-05-26","DECAY_DATE":null,"ARG_OF_PERICENTER":"79.4599","EPOCH":"2023-05-31T20:09:11.944512","MEAN_MOTION_DOT":"0.00005636","MEAN_MOTION":"15.06398692","APOAPSIS":"547.978","OBJECT_ID":"2021-044AK","FILE":"3922037","MEAN_MOTION_DDOT":"0.0000000000000","REF_FRAME":"TEME","TIME_SYSTEM":"UTC","PERIOD":"95.592","INCLINATION":"53.0539","BSTAR":"0.00039698000000","GP_ID":"232927081","COUNTRY_CODE":"US","MEAN_ELEMENT_THEORY":"SGP4","MEAN_ANOMALY":"280.6513","OBJECT_NAME":"STARLINK-2745","NORAD_CAT_ID":"48671","CLASSIFICATION_TYPE":"U","PERIAPSIS":"546.457","REV_AT_EPOCH":"11118","CENTER_NAME":"EARTH","SEMIMAJOR_AXIS":"6925.353","ELEMENT_SET_NO":"999","ECCENTRICITY":"0.00010980","TLE_LINE2":"2 48671  53.0539 338.4779 0001098  79.4599 280.6513 15.06398692111181","EPHEMERIS_TYPE":"0","RA_OF_ASC_NODE":"338.4779","RCS_SIZE":"LARGE"},{"DECAY_DATE":null,"LAUNCH_DATE":"2021-05-26","TLE_LINE1":"1 48672U 21044AL  23151.90237330  .00010439  00000-0  71851-3 0  9999","SITE":"AFETR","OBJECT_TYPE":"PAYLOAD","APOAPSIS":"547.879","OBJECT_ID":"2021-044AL","MEAN_MOTION_DOT":"0.00010439","MEAN_MOTION":"15.06407160","EPOCH":"2023-05-31T21:39:25.053120","ARG_OF_PERICENTER":"91.4624","MEAN_ANOMALY":"268.6479","MEAN_ELEMENT_THEORY":"SGP4","BSTAR":"0.00071851000000","PERIOD":"95.592","INCLINATION":"53.0546","COUNTRY_CODE":"US","GP_ID":"232925829","MEAN_MOTION_DDOT":"0.0000000000000","REF_FRAME":"TEME","TIME_SYSTEM":"UTC","FILE":"3922037","PERIAPSIS":"546.504","NORAD_CAT_ID":"48672","CLASSIFICATION_TYPE":"U","OBJECT_NAME":"STARLINK-2705","REV_AT_EPOCH":"11119","ELEMENT_SET_NO":"999","CENTER_NAME":"EARTH","SEMIMAJOR_AXIS":"6925.327","TLE_LINE2":"2 48672  53.0546 338.1971 0000993  91.4624 268.6479 15.06407160111196","EPHEMERIS_TYPE":"0","ECCENTRICITY":"0.00009930","RCS_SIZE":"LARGE","RA_OF_ASC_NODE":"338.1971"},{"OBJECT_NAME":"STARLINK-2711","NORAD_CAT_ID":"48673","CLASSIFICATION_TYPE":"U","PERIAPSIS":"546.316","FILE":"3922037","MEAN_MOTION_DDOT":"0.0000000000000","REF_FRAME":"TEME","TIME_SYSTEM":"UTC","PERIOD":"95.592","INCLINATION":"53.0544","BSTAR":"0.00001604700000","GP_ID":"232926079","COUNTRY_CODE":"US","MEAN_ANOMALY":"277.0132","MEAN_ELEMENT_THEORY":"SGP4","ARG_OF_PERICENTER":"83.1005","EPOCH":"2023-05-31T19:58:34.449024","MEAN_MOTION_DOT":"-0.00000042","MEAN_MOTION":"15.06397444","APOAPSIS":"548.127","OBJECT_ID":"2021-044AM","SITE":"AFETR","OBJECT_TYPE":"PAYLOAD","TLE_LINE1":"1 48673U 21044AM  23151.83234316 -.00000042  00000-0  16047-4 0  9990","LAUNCH_DATE":"2021-05-26","DECAY_DATE":null,"RA_OF_ASC_NODE":"338.5139","RCS_SIZE":"LARGE","ECCENTRICITY":"0.00013080","TLE_LINE2":"2 48673  53.0544 338.5139 0001308  83.1005 277.0132 15.06397444111189","EPHEMERIS_TYPE":"0","CENTER_NAME":"EARTH","SEMIMAJOR_AXIS":"6925.356","ELEMENT_SET_NO":"999","REV_AT_EPOCH":"11118"},{"DECAY_DATE":null,"LAUNCH_DATE":"2021-05-26","TLE_LINE1":"1 48674U 21044AN  23151.82771666  .00002503  00000-0  18688-3 0  9999","SITE":"AFETR","OBJECT_TYPE":"PAYLOAD","APOAPSIS":"548.207","OBJECT_ID":"2021-044AN","MEAN_MOTION_DOT":"0.00002503","MEAN_MOTION":"15.06398483","EPOCH":"2023-05-31T19:51:54.719424","ARG_OF_PERICENTER":"85.0230","MEAN_ELEMENT_THEORY":"SGP4","MEAN_ANOMALY":"275.0922","BSTAR":"0.00018688000000","PERIOD":"95.592","INCLINATION":"53.0544","COUNTRY_CODE":"US","GP_ID":"232926331","MEAN_MOTION_DDOT":"0.0000000000000","REF_FRAME":"TEME","TIME_SYSTEM":"UTC","FILE":"3922037","PERIAPSIS":"546.229","NORAD_CAT_ID":"48674","CLASSIFICATION_TYPE":"U","OBJECT_NAME":"STARLINK-2712","REV_AT_EPOCH":"11118","ELEMENT_SET_NO":"999","CENTER_NAME":"EARTH","SEMIMAJOR_AXIS":"6925.353","TLE_LINE2":"2 48674  53.0544 338.5206 0001428  85.0230 275.0922 15.06398483111188","EPHEMERIS_TYPE":"0","ECCENTRICITY":"0.00014280","RA_OF_ASC_NODE":"338.5206","RCS_SIZE":"LARGE"},{"FILE":"3922037","TIME_SYSTEM":"UTC","MEAN_MOTION_DDOT":"0.0000000000000","REF_FRAME":"TEME","GP_ID":"232926582","COUNTRY_CODE":"US","BSTAR":"0.00008558400000","PERIOD":"95.592","INCLINATION":"53.0551","MEAN_ANOMALY":"270.9541","MEAN_ELEMENT_THEORY":"SGP4","OBJECT_NAME":"STARLINK-2737","CLASSIFICATION_TYPE":"U","NORAD_CAT_ID":"48675","PERIAPSIS":"546.411","OBJECT_TYPE":"PAYLOAD","SITE":"AFETR","TLE_LINE1":"1 48675U 21044AP  23151.89132721  .00000993  00000-0  85584-4 0  9991","LAUNCH_DATE":"2021-05-26","DECAY_DATE":null,"ARG_OF_PERICENTER":"89.1584","EPOCH":"2023-05-31T21:23:30.670944","MEAN_MOTION_DOT":"0.00000993","MEAN_MOTION":"15.06394433","OBJECT_ID":"2021-044AP","APOAPSIS":"548.051","ECCENTRICITY":"0.00011840","EPHEMERIS_TYPE":"0","TLE_LINE2":"2 48675  53.0551 338.2468 0001184  89.1584 270.9541 15.06394433111193","RA_OF_ASC_NODE":"338.2468","RCS_SIZE":"LARGE","REV_AT_EPOCH":"11119","SEMIMAJOR_AXIS":"6925.366","CENTER_NAME":"EARTH","ELEMENT_SET_NO":"999"},{"APOAPSIS":"548.124","OBJECT_ID":"2021-044AQ","MEAN_MOTION_DOT":"-0.00000260","MEAN_MOTION":"15.06393859","EPOCH":"2023-05-31T19:42:39.481056","ARG_OF_PERICENTER":"87.2086","DECAY_DATE":null,"LAUNCH_DATE":"2021-05-26","TLE_LINE1":"1 48676U 21044AQ  23151.82129029 -.00000260  00000-0  14383-5 0  9990","SITE":"AFETR","OBJECT_TYPE":"PAYLOAD","PERIAPSIS":"546.340","NORAD_CAT_ID":"48676","CLASSIFICATION_TYPE":"U","OBJECT_NAME":"STARLINK-2746","MEAN_ANOMALY":"272.9050","MEAN_ELEMENT_THEORY":"SGP4","BSTAR":"0.00000143830000","PERIOD":"95.593","INCLINATION":"53.0542","GP_ID":"232925330","COUNTRY_CODE":"US","REF_FRAME":"TEME","MEAN_MOTION_DDOT":"0.0000000000000","TIME_SYSTEM":"UTC","FILE":"3922037","ELEMENT_SET_NO":"999","CENTER_NAME":"EARTH","SEMIMAJOR_AXIS":"6925.367","REV_AT_EPOCH":"11118","RCS_SIZE":"LARGE","RA_OF_ASC_NODE":"338.5643","TLE_LINE2":"2 48676  53.0542 338.5643 0001288  87.2086 272.9050 15.06393859111180","EPHEMERIS_TYPE":"0","ECCENTRICITY":"0.00012880"}];
